******** Week 935 almanac for PRN-37 ********
ID:                         37
Health:                     000
Eccentricity:               6.0582603328E-004
Time of Applicability(s):  432000.0000
Orbital Inclination(rad):   0.9467576925
Rate of Right Ascen(r/s):  -6.7813538992E-009
SQRT(A)  (m 1/2):           5282.643234
Right Ascen at Week(rad):   2.4793661682E+000
Argument of Perigee(rad):  -0.175076066
Mean Anom(rad):            -2.4253867059E+000
Af0(s):                    -9.1557553969E-004
Af1(s/s):                  -1.5310419599E-011
week:                        935

******** Week 935 almanac for PRN-38 ********
ID:                         38
Health:                     000
Eccentricity:               2.3920974927E-003
Time of Applicability(s):  432000.0000
Orbital Inclination(rad):   1.0016074682
Rate of Right Ascen(r/s):  -1.7522158440E-009
SQRT(A)  (m 1/2):           6493.828405
Right Ascen at Week(rad):  -4.2376888843E-001
Argument of Perigee(rad):  -2.799756249
Mean Anom(rad):            -9.3080172258E-001
Af0(s):                     1.2262363452E-004
Af1(s/s):                   2.4691360068E-012
week:                        935

******** Week 935 almanac for PRN-39 ********
ID:                         39
Health:                     000
Eccentricity:               3.0220565386E-003
Time of Applicability(s):  432000.0000
Orbital Inclination(rad):   0.9618143833
Rate of Right Ascen(r/s):  -1.9225800832E-009
SQRT(A)  (m 1/2):           6492.796932
Right Ascen at Week(rad):   1.6651092041E+000
Argument of Perigee(rad):  -2.844324699
Mean Anom(rad):            -3.0021273378E+000
Af0(s):                    -5.9545272961E-006
Af1(s/s):                  -4.7783998980E-013
week:                        935

******** Week 935 almanac for PRN-40 ********
ID:                         40
Health:                     000
Eccentricity:               3.3361962996E-003
Time of Applicability(s):  432000.0000
Orbital Inclination(rad):   0.9842691109
Rate of Right Ascen(r/s):  -2.6683254322E-009
SQRT(A)  (m 1/2):           6493.822008
Right Ascen at Week(rad):  -2.4579988891E+000
Argument of Perigee(rad):  -3.009393241
Mean Anom(rad):             1.3161876256E+000
Af0(s):                    -4.6954257414E-005
Af1(s/s):                  -1.3455903058E-012
week:                        935

******** Week 935 almanac for PRN-41 ********
ID:                         41
Health:                     000
Eccentricity:               1.4486141736E-003
Time of Applicability(s):  432000.0000
Orbital Inclination(rad):   0.9736811023
Rate of Right Ascen(r/s):  -6.7834968456E-009
SQRT(A)  (m 1/2):           5282.621572
Right Ascen at Week(rad):   3.8255900840E-001
Argument of Perigee(rad):  -1.519828597
Mean Anom(rad):             1.7526042674E+000
Af0(s):                    -8.7280012667E-004
Af1(s/s):                  -1.1972645098E-012
week:                        935

******** Week 935 almanac for PRN-42 ********
ID:                         42
Health:                     000
Eccentricity:               1.2081081513E-003
Time of Applicability(s):  432000.0000
Orbital Inclination(rad):   0.9737127467
Rate of Right Ascen(r/s):  -6.7670675898E-009
SQRT(A)  (m 1/2):           5282.619539
Right Ascen at Week(rad):   3.8313537033E-001
Argument of Perigee(rad):  -1.240191191
Mean Anom(rad):             3.0397888311E+000
Af0(s):                    -4.8501254059E-004
Af1(s/s):                   6.6924243924E-012
week:                        935

******** Week 935 almanac for PRN-43 ********
ID:                         43
Health:                     000
Eccentricity:               4.2671780102E-004
Time of Applicability(s):  432000.0000
Orbital Inclination(rad):   0.9539291598
Rate of Right Ascen(r/s):  -7.1517264695E-009
SQRT(A)  (m 1/2):           5282.617538
Right Ascen at Week(rad):  -1.7374499824E+000
Argument of Perigee(rad):   0.368784521
Mean Anom(rad):             2.7690452421E+000
Af0(s):                     5.1391893067E-005
Af1(s/s):                   1.5498713424E-012
week:                        935

******** Week 935 almanac for PRN-44 ********
ID:                         44
Health:                     000
Eccentricity:               6.4077449497E-004
Time of Applicability(s):  432000.0000
Orbital Inclination(rad):   0.9543862500
Rate of Right Ascen(r/s):  -7.2174434926E-009
SQRT(A)  (m 1/2):           5282.624140
Right Ascen at Week(rad):  -1.7371036629E+000
Argument of Perigee(rad):   0.428344081
Mean Anom(rad):            -2.0484686321E+000
Af0(s):                     3.1602219678E-004
Af1(s/s):                   1.1636025477E-011
week:                        935

******** Week 935 almanac for PRN-45 ********
ID:                         45
Health:                     000
Eccentricity:               6.1721378006E-004
Time of Applicability(s):  432000.0000
Orbital Inclination(rad):   0.9506896404
Rate of Right Ascen(r/s):  -6.7088508791E-009
SQRT(A)  (m 1/2):           5282.623842
Right Ascen at Week(rad):   2.4833054277E+000
Argument of Perigee(rad):   0.410804764
Mean Anom(rad):             9.0678582155E-001
Af0(s):                    -5.2934512496E-005
Af1(s/s):                  -3.3049118997E-012
week:                        935

******** Week 935 almanac for PRN-46 ********
ID:                         46
Health:                     000
Eccentricity:               9.4166665804E-004
Time of Applicability(s):  432000.0000
Orbital Inclination(rad):   0.9507166122
Rate of Right Ascen(r/s):  -6.7302803432E-009
SQRT(A)  (m 1/2):           5282.631855
Right Ascen at Week(rad):   2.4838435445E+000
Argument of Perigee(rad):   0.347009891
Mean Anom(rad):             2.5064385322E+000
Af0(s):                    -1.0568718426E-004
Af1(s/s):                  -3.0100366644E-012
week:                        935

******** Week 935 almanac for PRN-59 ********
ID:                         59
Health:                     000
Eccentricity:               1.2987398077E-004
Time of Applicability(s):  432000.0000
Orbital Inclination(rad):   0.0679422429
Rate of Right Ascen(r/s):   1.7225717520E-009
SQRT(A)  (m 1/2):           6493.545559
Right Ascen at Week(rad):   2.9309176849E+000
Argument of Perigee(rad):  -2.021490234
Mean Anom(rad):             1.6191269884E+000
Af0(s):                    -8.3213672042E-007
Af1(s/s):                  -1.1013412404E-013
week:                        935

******** Week 935 almanac for PRN-60 ********
ID:                         60
Health:                     000
Eccentricity:               3.1487795059E-004
Time of Applicability(s):  432000.0000
Orbital Inclination(rad):   0.0731759582
Rate of Right Ascen(r/s):   4.3276802652E-009
SQRT(A)  (m 1/2):           6493.456451
Right Ascen at Week(rad):  -2.6223293781E+000
Argument of Perigee(rad):  -0.529592034
Mean Anom(rad):            -1.6473566933E+000
Af0(s):                    -2.2456515580E-007
Af1(s/s):                   6.1284310959E-014
week:                        935

